NORAD_CAT_ID,OBJECT_NAME,OBJECT_TYPE,EPOCH,MEAN_MOTION,ECCENTRICITY,INCLINATION,RA_OF_ASC_NODE,ARG_OF_PERICENTER,MEAN_ANOMALY,BSTAR,MEAN_MOTION_DOT,MEAN_MOTION_DDOT,TLE_LINE0,TLE_LINE1,TLE_LINE2,SEMIMAJOR_AXIS,PERIOD,APOGEE,PERIGEE,DECAYED
51783.0,STARLINK-3628,PAYLOAD,2022-04-11 22:00:00,15.73152945,0.0001319,53.2132,279.5556,62.2247,151.41299999999995,-6.0099e-06,-1.461e-05,0.0,0 STARLINK-3628,1 51783U 22017R   22101.91667824 -.00001461  00000-0 -60099-5 0  9998,2 51783  53.2132 279.5556 0001319  62.2247 151.4130 15.73152945  3693,6728.029,91.536,350.782,349.00699999999995,0.0
51783.0,STARLINK-3628,PAYLOAD,2022-04-12 12:00:00,15.73155007,0.000121,53.2129,276.6668,76.8751,202.2557,0.00045891,0.00064154,0.0,0 STARLINK-3628,1 51783U 22017R   22102.50001157  .00064154  00000-0  45891-3 0  9992,2 51783  53.2129 276.6668 0001210  76.8751 202.2557 15.73155007  8440,6728.023,91.536,350.70300000000015,349.074,0.0
51783.0,STARLINK-3628,PAYLOAD,2022-04-12 14:00:01,15.73186404,0.0001206,53.2129,276.255,72.8915,318.4541,9.2811e-05,0.00012417,0.0,0 STARLINK-3628,1 51783U 22017R   22102.58334491  .00012417  00000-0  92811-4 0  9990,2 51783  53.2129 276.2550 0001206  72.8915 318.4541 15.73186404  3699,6727.934,91.534,350.61,348.98800000000006,0.0
51783.0,STARLINK-3628,PAYLOAD,2022-04-12 20:00:01,15.73205469,0.0001181,53.213,275.0194,60.9899,307.048,-0.0002662,-0.0003782,0.0,0 STARLINK-3628,1 51783U 22017R   22102.83334491 -.00037820  00000-0 -26620-3 0  9999,2 51783  53.2130 275.0194 0001181  60.9899 307.0480 15.73205469  8507,6727.88,91.533,350.539,348.95,0.0
51783.0,STARLINK-3628,PAYLOAD,2022-04-12 22:00:00,15.73169837,0.000112,53.2129,274.6071,55.6747,64.6051,0.00021786,0.00030025,0.0,0 STARLINK-3628,1 51783U 22017R   22102.91667824  .00030025  00000-0  21786-3 0  9993,2 51783  53.2129 274.6071 0001120  55.6747  64.6051 15.73169837  3682,6727.981,91.535,350.6,349.093,0.0
51783.0,STARLINK-3628,PAYLOAD,2022-04-13 04:00:00,15.73291462,0.0001132,53.213,273.3682,60.3276,36.6609,-0.0005109,-0.00071989,0.0,0 STARLINK-3628,1 51783U 22017R   22103.16667824 -.00071989  00000-0 -51090-3 0  9998,2 51783  53.2130 273.3682 0001132  60.3276  36.6609 15.73291462  8550,6727.634,91.528,350.261,348.73800000000006,0.0
51783.0,STARLINK-3628,PAYLOAD,2022-04-13 14:00:03,15.72940914,0.000123,53.2165,271.2928,64.8302,233.5719,-0.0010531,-0.001443,0.0,0 STARLINK-3628,1 51783U 22017R   22103.58336806 -.00144300  00000-0 -10531-2 0  9999,2 51783  53.2165 271.2928 0001230  64.8302 233.5719 15.72940914  8626,6728.634,91.548,351.327,349.671,0.0
51783.0,STARLINK-3628,PAYLOAD,2022-04-13 22:00:00,15.72875423,0.0001104,53.2174,269.6423,60.5933,326.2535,-0.0056208,-0.0071553,0.0,0 STARLINK-3628,1 51783U 22017R   22103.91667824 -.00715530  00000-0 -56208-2 0  9993,2 51783  53.2174 269.6423 0001104  60.5933 326.2535 15.72875423  8673,6728.821,91.552,351.42900000000014,349.9430000000001,0.0
51783.0,STARLINK-3628,PAYLOAD,2022-04-14 14:00:01,15.71856643,0.0001426,53.2176,266.3471,50.7361,151.9549,-0.0058875,-0.00717406,0.0,0 STARLINK-3628,1 51783U 22017R   22104.58334491 -.00717406  00000-0 -58875-2 0  9994,2 51783  53.2176 266.3471 0001426  50.7361 151.9549 15.71856643  3704,6731.728,91.611,354.55300000000005,352.6330000000001,0.0
51783.0,STARLINK-3628,PAYLOAD,2022-04-14 22:00:00,15.71345121,0.0001107999999999,53.2173,264.7036,71.7855,217.9075,-0.0059873,-0.00714085,0.0,0 STARLINK-3628,1 51783U 22017R   22104.91667824 -.00714085  00000-0 -59873-2 0  9999,2 51783  53.2173 264.7036 0001108  71.7855 217.9075 15.71345121  8838,6733.189,91.641,355.8,354.30800000000005,0.0
51783.0,STARLINK-3628,PAYLOAD,2022-04-15 14:00:01,15.70327472,0.0001351,53.2175,261.4161,48.39,53.4701,-0.0062912,-0.00718449,0.0,0 STARLINK-3628,1 51783U 22017R   22105.58334491 -.00718449  00000-0 -62912-2 0  9990,2 51783  53.2175 261.4161 0001351  48.3900  53.4701 15.70327472  3690,6736.097,91.701,358.872,357.052,0.0
51783.0,STARLINK-3628,PAYLOAD,2022-04-15 22:00:00,15.69814489,0.0001274999999999,53.2172,259.7758,62.1008,124.9238,-0.0063721,-0.00712684,0.0,0 STARLINK-3628,1 51783U 22017R   22105.91667824 -.00712684  00000-0 -63721-2 0  9990,2 51783  53.2172 259.7758 0001275  62.1008 124.9238 15.69814489  8980,6737.565,91.731,360.289,358.571,0.0
51783.0,STARLINK-3628,PAYLOAD,2022-04-16 14:00:01,15.68798683,0.0001460999999999,53.2175,256.496,37.4209,318.0931,-0.0067198,-0.00719853,0.0,0 STARLINK-3628,1 51783U 22017R   22106.58334491 -.00719853  00000-0 -67198-2 0  9992,2 51783  53.2175 256.4960 0001461  37.4209 318.0931 15.68798683  3704,6740.473000000001,91.79,363.323,361.353,0.0
51783.0,STARLINK-3628,PAYLOAD,2022-04-16 22:00:01,15.68286957,0.0001200999999999,53.217,254.8593,53.9905,24.9147,-0.0068271,-0.00716281,0.0,0 STARLINK-3628,1 51783U 22017R   22106.91668981 -.00716281  00000-0 -68271-2 0  9998,2 51783  53.2170 254.8593 0001201  53.9905  24.9147 15.68286957  9143,6741.939,91.82,364.614,362.994,0.0
51783.0,STARLINK-3628,PAYLOAD,2022-04-17 14:00:01,15.67265966,0.0001503,53.2175,251.5872,48.2831,195.3713,-0.0071022,-0.00714732,0.0,0 STARLINK-3628,1 51783U 22017R   22107.58334491 -.00714732  00000-0 -71022-2 0  9995,2 51783  53.2175 251.5872 0001503  48.2831 195.3713 15.67265966  3717,6744.8669999999975,91.88,367.745,365.718,0.0
51783.0,STARLINK-3628,PAYLOAD,2022-04-17 22:00:00,15.6675789,0.0001183,53.2173,249.954,56.8354,268.305,-0.0072724999999999,-0.00716612,0.0,0 STARLINK-3628,1 51783U 22017R   22107.91667824 -.00716612  00000-0 -72725-2 0  9991,2 51783  53.2173 249.9540 0001183  56.8354 268.3050 15.66757890  3690,6746.325,91.91,368.98800000000006,367.392,0.0
51783.0,STARLINK-3628,PAYLOAD,2022-04-18 08:00:01,15.66120374,0.0001481,53.2174,247.9113,47.5539,108.5858,-0.0074751,-0.00717716,0.0,0 STARLINK-3628,1 51783U 22017R   22108.33334491 -.00717716  00000-0 -74751-2 0  9996,2 51783  53.2174 247.9113 0001481  47.5539 108.5858 15.66120374  9360,6748.156,91.947,371.02,369.021,0.0
51783.0,STARLINK-3628,PAYLOAD,2022-04-18 14:00:01,15.65735948,0.0001676999999999,53.2175,246.6897,30.9407,95.3379,-0.0075557,-0.00714584,0.0,0 STARLINK-3628,1 51783U 22017R   22108.58334491 -.00714584  00000-0 -75557-2 0  9998,2 51783  53.2175 246.6897 0001677  30.9407  95.3379 15.65735948  3715,6749.26,91.97,372.257,369.99300000000005,0.0
51783.0,STARLINK-3628,PAYLOAD,2022-04-18 22:00:00,15.65228171,0.0001398,53.2171,245.0599,52.9523,152.9744,-0.0077505,-0.00717815,0.0,0 STARLINK-3628,1 51783U 22017R   22108.91667824 -.00717815  00000-0 -77505-2 0  9999,2 51783  53.2171 245.0599 0001398  52.9523 152.9744 15.65228171  3706,6750.72,91.999,373.528,371.641,0.0
51783.0,STARLINK-3628,PAYLOAD,2022-04-19 14:00:01,15.64208268,0.0001628,53.2174,241.8031,32.803000000000004,330.5838,-0.0080717,-0.0071771999999999,0.0,0 STARLINK-3628,1 51783U 22017R   22109.58334491 -.00717720  00000-0 -80717-2 0  9998,2 51783  53.2174 241.8031 0001628  32.8030 330.5838 15.64208268  9562,6753.654,92.059,376.61800000000005,374.419,0.0
51783.0,STARLINK-3628,PAYLOAD,2022-04-20 14:00:01,15.62675413,0.0002007,53.2176,236.9277,30.5512,204.4308,-0.0085117,-0.00712793,0.0,0 STARLINK-3628,1 51783U 22017R   22110.58334491 -.00712793  00000-0 -85117-2 0  9994,2 51783  53.2176 236.9277 0002007  30.5512 204.4308 15.62675413  9719,6758.07,92.15,381.291,378.578,0.0
51783.0,STARLINK-3628,PAYLOAD,2022-04-20 22:00:00,15.62168989,0.0001505,53.2173,235.305,39.7793,271.1736,-0.0087516,-0.00717884,0.0,0 STARLINK-3628,1 51783U 22017R   22110.91667824 -.00717884  00000-0 -87516-2 0  9991,2 51783  53.2173 235.3050 0001505  39.7793 271.1736 15.62168989  3683,6759.53,92.18,382.412,380.378,0.0
51783.0,STARLINK-3628,PAYLOAD,2022-04-21 14:00:01,15.61147748,0.0001976,53.2173,232.0636,27.7389,73.321,-0.0090813,-0.00716094,0.0,0 STARLINK-3628,1 51783U 22017R   22111.58334491 -.00716094  00000-0 -90813-2 0  9992,2 51783  53.2173 232.0636 0001976  27.7389  73.3210 15.61147748  3719,6762.478,92.24,385.679,383.006,0.0
51783.0,STARLINK-3628,PAYLOAD,2022-04-21 22:00:00,15.6063823,0.0001509,53.2172,230.4444,46.824,128.37,-0.0092741,-0.00716821,0.0,0 STARLINK-3628,1 51783U 22017R   22111.91667824 -.00716821  00000-0 -92741-2 0  9998,2 51783  53.2172 230.4444 0001509  46.8240 128.3700 15.60638230  3712,6763.949000000001,92.27,386.835,384.794,0.0
51783.0,STARLINK-3628,PAYLOAD,2022-04-22 14:00:01,15.59617834,0.0001823,53.2173,227.2104,30.6988,290.9249,-0.0096317,-0.00715907,0.0,0 STARLINK-3628,1 51783U 22017R   22112.58334491 -.00715907  00000-0 -96317-2 0  9990,2 51783  53.2173 227.2104 0001823  30.6988 290.9249 15.59617834  3707,6766.899,92.33,389.99800000000016,387.531,0.0
51783.0,STARLINK-3628,PAYLOAD,2022-04-22 22:00:00,15.59107915,0.0001863,53.2173,225.5949,25.9572,7.9622,-0.0098126,-0.0071531,0.0,0 STARLINK-3628,1 51783U 22017R   22112.91667824 -.00715310  00000-0 -98126-2 0  9994,2 51783  53.2173 225.5949 0001863  25.9572   7.9622 15.59107915 10089,6768.375,92.361,391.501,388.979,0.0
51783.0,STARLINK-3628,PAYLOAD,2022-04-23 14:00:01,15.5808679,0.000224,53.2175,222.3684,26.2134,150.4595,-0.010175,-0.00713682,0.0,0 STARLINK-3628,1 51783U 22017R   22113.58334491 -.00713682  00000-0 -10175-1 0  9996,2 51783  53.2175 222.3684 0002240  26.2134 150.4595 15.58086790  3698,6771.331999999999,92.421,394.713,391.68,0.0
51783.0,STARLINK-3628,PAYLOAD,2022-04-23 22:00:00,15.57578892,0.0001567,53.2172,220.7562,45.6128,201.5171,-0.01043,-0.00717178,0.0,0 STARLINK-3628,1 51783U 22017R   22113.91667824 -.00717178  00000-0 -10430-1 0  9990,2 51783  53.2172 220.7562 0001567  45.6128 201.5171 15.57578892 10235,6772.803000000001,92.451,395.73,393.607,0.0
51783.0,STARLINK-3628,PAYLOAD,2022-04-24 14:00:01,15.56559341,0.000188,53.2174,217.5376,28.004,358.2014,-0.010842,-0.00717501,0.0,0 STARLINK-3628,1 51783U 22017R   22114.58334491 -.00717501  00000-0 -10842-1 0  9992,2 51783  53.2174 217.5376 0001880  28.0040 358.2014 15.56559341  3695,6775.761,92.512,398.899,396.352,0.0
